{"type": "FeatureCollection", "features": [ {"type": "Feature", "properties": {"norad_id": 39122, "name": "EUTELSAT 117 WEST A", "group": "eutelsat", "lat": -0.027441107500732705, "lon": -78.7555241664779, "alt_km": 35773.606441218464, "timestamp": "2025-12-04T21:36:15.545819+00:00", "meta": {"OBJECT_NAME": "EUTELSAT 117 WEST A", "OBJECT_ID": "2013-012A", "EPOCH": "2025-12-04T13:10:15.303936", "MEAN_MOTION": 1.00272437, "ECCENTRICITY": 0.00032089, "INCLINATION": 0.0194, "RA_OF_ASC_NODE": 314.6933, "ARG_OF_PERICENTER": 301.181, "MEAN_ANOMALY": 258.5257, "EPHEMERIS_TYPE": 0, "CLASSIFICATION_TYPE": "U", "NORAD_CAT_ID": 39122, "ELEMENT_SET_NO": 999, "REV_AT_EPOCH": 4648, "BSTAR": 0, "MEAN_MOTION_DOT": 1e-08, "MEAN_MOTION_DDOT": 0}, "tle": {"line1": "1 39122U 13012A   25338.54878824  .00000001  00000+0  00000+0 0  9990", "line2": "2 39122   0.0194 314.6933 0003208 301.1810 258.5257  1.00272437 46481"}}, "geometry": {"type": "Point", "coordinates": [-78.7555241664779, -0.027441107500732705]}}, {"type": "Feature", "properties": {"norad_id": 39163, "name": "EUTELSAT 7B", "group": "eutelsat", "lat": 0.06908053799371591, "lon": 45.05201268675678, "alt_km": 35787.91593822553, "timestamp": "2025-12-04T21:36:15.545831+00:00", "meta": {"OBJECT_NAME": "EUTELSAT 7B", "OBJECT_ID": "2013-022A", "EPOCH": "2025-12-04T10:18:38.727360", "MEAN_MOTION": 1.00269718, "ECCENTRICITY": 0.00042735, "INCLINATION": 0.0678, "RA_OF_ASC_NODE": 2.7542, "ARG_OF_PERICENTER": 308.3811, "MEAN_ANOMALY": 284.0236, "EPHEMERIS_TYPE": 0, "CLASSIFICATION_TYPE": "U", "NORAD_CAT_ID": 39163, "ELEMENT_SET_NO": 999, "REV_AT_EPOCH": 4600, "BSTAR": 0, "MEAN_MOTION_DOT": 6.3e-07, "MEAN_MOTION_DDOT": 0}, "tle": {"line1": "1 39163U 13022A   25338.42961490  .00000063  00000+0  00000+0 0  9993", "line2": "2 39163   0.0678   2.7542 0004273 308.3811 284.0236  1.00269718 46004"}}, "geometry": {"type": "Point", "coordinates": [45.05201268675678, 0.06908053799371591]}}, {"type": "Feature", "properties": {"norad_id": 39612, "name": "EXPRESS-AT1", "group": "eutelsat", "lat": 0.02611545399869072, "lon": 94.00756364927697, "alt_km": 35786.32518925447, "timestamp": "2025-12-04T21:36:15.545844+00:00", "meta": {"OBJECT_NAME": "EXPRESS-AT1", "OBJECT_ID": "2014-010A", "EPOCH": "2025-12-04T13:59:33.080064", "MEAN_MOTION": 1.00270212, "ECCENTRICITY": 1.36e-05, "INCLINATION": 0.0176, "RA_OF_ASC_NODE": 304.2222, "ARG_OF_PERICENTER": 222.5945, "MEAN_ANOMALY": 172.7241, "EPHEMERIS_TYPE": 0, "CLASSIFICATION_TYPE": "U", "NORAD_CAT_ID": 39612, "ELEMENT_SET_NO": 999, "REV_AT_EPOCH": 4286, "BSTAR": 0, "MEAN_MOTION_DOT": 9.3e-07, "MEAN_MOTION_DDOT": 0}, "tle": {"line1": "1 39612U 14010A   25338.58302176  .00000093  00000+0  00000+0 0  9990", "line2": "2 39612   0.0176 304.2222 0000136 222.5945 172.7241  1.00270212 42860"}}, "geometry": {"type": "Point", "coordinates": [94.00756364927697, 0.02611545399869072]}}, {"type": "Feature", "properties": {"norad_id": 39613, "name": "EXPRESS-AT2", "group": "eutelsat", "lat": -0.01753952770225196, "lon": 177.84235292766425, "alt_km": 35789.38667667801, "timestamp": "2025-12-04T21:36:15.545856+00:00", "meta": {"OBJECT_NAME": "EXPRESS-AT2", "OBJECT_ID": "2014-010B", "EPOCH": "2025-12-04T14:23:30.784704", "MEAN_MOTION": 1.00270135, "ECCENTRICITY": 0.00015244, "INCLINATION": 0.0201, "RA_OF_ASC_NODE": 341.3223, "ARG_OF_PERICENTER": 312.6835, "MEAN_ANOMALY": 135.391, "EPHEMERIS_TYPE": 0, "CLASSIFICATION_TYPE": "U", "NORAD_CAT_ID": 39613, "ELEMENT_SET_NO": 999, "REV_AT_EPOCH": 4254, "BSTAR": 0, "MEAN_MOTION_DOT": 0, "MEAN_MOTION_DDOT": 0}, "tle": {"line1": "1 39613U 14010B   25338.59966186  .00000000  00000+0  00000+0 0  9997", "line2": "2 39613   0.0201 341.3223 0001524 312.6835 135.3910  1.00270135 42541"}}, "geometry": {"type": "Point", "coordinates": [177.84235292766425, -0.01753952770225196]}}, {"type": "Feature", "properties": {"norad_id": 39773, "name": "EUTELSAT 3B", "group": "eutelsat", "lat": 0.05982903068030788, "lon": 41.113834572727754, "alt_km": 35806.24018190781, "timestamp": "2025-12-04T21:36:15.545867+00:00", "meta": {"OBJECT_NAME": "EUTELSAT 3B", "OBJECT_ID": "2014-030A", "EPOCH": "2025-12-04T13:44:27.028320", "MEAN_MOTION": 1.00271062, "ECCENTRICITY": 0.00047717, "INCLINATION": 0.0634, "RA_OF_ASC_NODE": 5.1533, "ARG_OF_PERICENTER": 224.1164, "MEAN_ANOMALY": 53.5813, "EPHEMERIS_TYPE": 0, "CLASSIFICATION_TYPE": "U", "NORAD_CAT_ID": 39773, "ELEMENT_SET_NO": 999, "REV_AT_EPOCH": 4211, "BSTAR": 0, "MEAN_MOTION_DOT": 3.4e-07, "MEAN_MOTION_DDOT": 0}, "tle": {"line1": "1 39773U 14030A   25338.57253505  .00000034  00000+0  00000+0 0  9995", "line2": "2 39773   0.0634   5.1533 0004771 224.1164  53.5813  1.00271062 42112"}}, "geometry": {"type": "Point", "coordinates": [41.113834572727754, 0.05982903068030788]}}, {"type": "Feature", "properties": {"norad_id": 40425, "name": "EUTELSAT 115 WEST B", "group": "eutelsat", "lat": 0.0073599948835604435, "lon": -76.8644923652134, "alt_km": 35786.154278060574, "timestamp": "2025-12-04T21:36:15.545879+00:00", "meta": {"OBJECT_NAME": "EUTELSAT 115 WEST B", "OBJECT_ID": "2015-010B", "EPOCH": "2025-12-04T13:10:52.743648", "MEAN_MOTION": 1.00275299, "ECCENTRICITY": 4.036e-05, "INCLINATION": 0.0149, "RA_OF_ASC_NODE": 139.4558, "ARG_OF_PERICENTER": 272.1995, "MEAN_ANOMALY": 104.8079, "EPHEMERIS_TYPE": 0, "CLASSIFICATION_TYPE": "U", "NORAD_CAT_ID": 40425, "ELEMENT_SET_NO": 999, "REV_AT_EPOCH": 3944, "BSTAR": 0, "MEAN_MOTION_DOT": -1.1e-07, "MEAN_MOTION_DDOT": 0}, "tle": {"line1": "1 40425U 15010B   25338.54922157 -.00000011  00000+0  00000+0 0  9999", "line2": "2 40425   0.0149 139.4558 0000403 272.1995 104.8079  1.00275299 39442"}}, "geometry": {"type": "Point", "coordinates": [-76.8644923652134, 0.0073599948835604435]}}, {"type": "Feature", "properties": {"norad_id": 40875, "name": "EUTELSAT 8 WEST B", "group": "eutelsat", "lat": 0.06450378166832613, "lon": 30.054763360590353, "alt_km": 35798.34204825315, "timestamp": "2025-12-04T21:36:15.545891+00:00", "meta": {"OBJECT_NAME": "EUTELSAT 8 WEST B", "OBJECT_ID": "2015-039B", "EPOCH": "2025-12-04T10:15:43.581600", "MEAN_MOTION": 1.00271635, "ECCENTRICITY": 0.00041268, "INCLINATION": 0.0652, "RA_OF_ASC_NODE": 349.5368, "ARG_OF_PERICENTER": 266.1668, "MEAN_ANOMALY": 323.7381, "EPHEMERIS_TYPE": 0, "CLASSIFICATION_TYPE": "U", "NORAD_CAT_ID": 40875, "ELEMENT_SET_NO": 999, "REV_AT_EPOCH": 3770, "BSTAR": 0, "MEAN_MOTION_DOT": -5e-07, "MEAN_MOTION_DDOT": 0}, "tle": {"line1": "1 40875U 15039B   25338.42758775 -.00000050  00000+0  00000+0 0  9992", "line2": "2 40875   0.0652 349.5368 0004126 266.1668 323.7381  1.00271635 37704"}}, "geometry": {"type": "Point", "coordinates": [30.054763360590353, 0.06450378166832613]}}, {"type": "Feature", "properties": {"norad_id": 41310, "name": "EUTELSAT 9B", "group": "eutelsat", "lat": -0.0021843528821570927, "lon": 47.0351535145199, "alt_km": 35802.536043770815, "timestamp": "2025-12-04T21:36:15.545902+00:00", "meta": {"OBJECT_NAME": "EUTELSAT 9B", "OBJECT_ID": "2016-005A", "EPOCH": "2025-12-04T13:46:11.860896", "MEAN_MOTION": 1.00271663, "ECCENTRICITY": 0.00049692, "INCLINATION": 0.0689, "RA_OF_ASC_NODE": 75.4644, "ARG_OF_PERICENTER": 190.3194, "MEAN_ANOMALY": 23.398, "EPHEMERIS_TYPE": 0, "CLASSIFICATION_TYPE": "U", "NORAD_CAT_ID": 41310, "ELEMENT_SET_NO": 999, "REV_AT_EPOCH": 3616, "BSTAR": 0, "MEAN_MOTION_DOT": 7.6e-07, "MEAN_MOTION_DDOT": 0}, "tle": {"line1": "1 41310U 16005A   25338.57374839  .00000076  00000+0  00000+0 0  9999", "line2": "2 41310   0.0689  75.4644 0004969 190.3194  23.3980  1.00271663 36166"}}, "geometry": {"type": "Point", "coordinates": [47.0351535145199, -0.0021843528821570927]}}, {"type": "Feature", "properties": {"norad_id": 41382, "name": "EUTELSAT 65 WEST A", "group": "eutelsat", "lat": -0.012313626137776257, "lon": -27.161401609405093, "alt_km": 35782.72215140781, "timestamp": "2025-12-04T21:36:15.545914+00:00", "meta": {"OBJECT_NAME": "EUTELSAT 65 WEST A", "OBJECT_ID": "2016-014A", "EPOCH": "2025-12-04T13:24:58.893408", "MEAN_MOTION": 1.00270224, "ECCENTRICITY": 0.00028319, "INCLINATION": 0.0497, "RA_OF_ASC_NODE": 348.6097, "ARG_OF_PERICENTER": 272.9646, "MEAN_ANOMALY": 308.0994, "EPHEMERIS_TYPE": 0, "CLASSIFICATION_TYPE": "U", "NORAD_CAT_ID": 41382, "ELEMENT_SET_NO": 999, "REV_AT_EPOCH": 3558, "BSTAR": 0, "MEAN_MOTION_DOT": -2.62e-06, "MEAN_MOTION_DDOT": 0}, "tle": {"line1": "1 41382U 16014A   25338.55901497 -.00000262  00000+0  00000+0 0  9990", "line2": "2 41382   0.0497 348.6097 0002831 272.9646 308.0994  1.00270224 35589"}}, "geometry": {"type": "Point", "coordinates": [-27.161401609405093, -0.012313626137776257]}}, {"type": "Feature", "properties": {"norad_id": 41589, "name": "EUTELSAT 117 WEST B", "group": "eutelsat", "lat": 0.014039343075450048, "lon": -78.99354104064206, "alt_km": 35787.55627958742, "timestamp": "2025-12-04T21:36:15.545925+00:00", "meta": {"OBJECT_NAME": "EUTELSAT 117 WEST B", "OBJECT_ID": "2016-038B", "EPOCH": "2025-12-04T10:48:15.330816", "MEAN_MOTION": 1.00269296, "ECCENTRICITY": 2.095e-05, "INCLINATION": 0.0071, "RA_OF_ASC_NODE": 152.5773, "ARG_OF_PERICENTER": 282.2107, "MEAN_ANOMALY": 43.7985, "EPHEMERIS_TYPE": 0, "CLASSIFICATION_TYPE": "U", "NORAD_CAT_ID": 41589, "ELEMENT_SET_NO": 999, "REV_AT_EPOCH": 3471, "BSTAR": 0, "MEAN_MOTION_DOT": 4e-08, "MEAN_MOTION_DDOT": 0}, "tle": {"line1": "1 41589U 16038B   25338.45017744  .00000004  00000+0  00000+0 0  9990", "line2": "2 41589   0.0071 152.5773 0000209 282.2107  43.7985  1.00269296 34716"}}, "geometry": {"type": "Point", "coordinates": [-78.99354104064206, 0.014039343075450048]}}]}